KUIPER-00251            
1 67156U 25301Z   26016.47070393  .00020285  00000+0  58864-3 0  9994
2 67156  51.8679 317.7570 0008951 204.1524 155.9043 15.35458815  5898
KUIPER-00252            
1 67157U 25301AA  26016.54466623  .00030322  00000+0  88236-3 0  9997
2 67157  51.8680 317.4966 0009981 216.9014 143.1286 15.35124443  5712
KUIPER-00261            
1 67158U 25301AB  26016.45536803  .00020708  00000+0  58401-3 0  9994
2 67158  51.8704 317.6637 0006654 190.1337 169.9516 15.36355024  5705
KUIPER-00265            
1 67159U 25301AC  26016.58336806 -.01073159  00000+0 -65457-1 0  9998
2 67159  51.8875 317.9487 0002101 205.2720  91.8497 15.12659190  5759
